full_name,pdes,a,e,i,om,w,primary_type,detail_type1,detail_type2
     C/1999 G1 (LINEAR),1999 G1,28.27,0.8568,76.57,23.46,136.13,Comet,FEO,Short-period
     C/2017 K4 (ATLAS),2017 K4,28.13,0.9059,16.68,298.9,15.11,Comet,FEO,Short-period
     C/2015 T5 (Sheppard-Tholen),2015 T5,27.97,0.6661,11.05,311.19,61.84,Comet,FEO,Short-period
     C/2018 O1 (ATLAS),2018 O1,27.87,0.9441,154.04,87.62,162.5,Comet,FEO,Short-period
     C/1917 F1 (Mellish),1917 F1,27.4,0.9931,32.69,88.67,121.31,Comet,NEO,Short-period
     C/2020 M3 (ATLAS),2020 M3,26.82,0.9527,23.47,71.25,328.45,Comet,NEO,Short-period
     C/2001 M10 (NEAT),2001 M10,26.66,0.8011,28.08,293.92,5.48,Comet,FEO,Short-period
     C/2021 J1 (Maury-Attard),2021 J1,26.53,0.9344,92.72,88.32,147.33,Comet,FEO,Short-period
     C/2012 Q1 (Kowalski),2012 Q1,26.13,0.6371,45.18,184.44,139.24,Comet,FEO,Short-period
  109P/Swift-Tuttle,109P,26.09,0.9632,113.45,139.38,152.98,Comet,NEO,Short-period
     C/2018 DO4 (Lemmon),2018 DO4,25.86,0.907,160.47,251.13,175.97,Comet,FEO,Short-period
     C/2019 L2 (NEOWISE),2019 L2,25.64,0.9368,152.19,12.53,18.82,Comet,FEO,Short-period
     C/2018 V2 (ATLAS),2018 V2,25.48,0.9029,159.11,356.79,318.66,Comet,FEO,Short-period
     C/2018 A1 (PANSTARRS),2018 A1,25.3,0.9044,53.56,336.62,96.39,Comet,FEO,Short-period
     C/2003 W1 (LINEAR),2003 W1,25.17,0.9343,78.08,256.74,113.29,Comet,FEO,Short-period
     C/2010 E5 (Scotti),2010 E5,24.73,0.8427,18.91,17.08,147.86,Comet,FEO,Short-period
  177P/Barnard,177P,24.3,0.9544,31.22,272.07,60.45,Comet,NEO,Short-period
     C/2022 F2 (NEOWISE),2022 F2,23.94,0.9338,97.29,58.69,200.63,Comet,FEO,Short-period
     C/2005 O2 (Christensen),2005 O2,23.71,0.8594,148.89,280.77,263.83,Comet,FEO,Short-period
     C/1905 F1 (Giacobini),1905 F1,23.56,0.9528,40.07,158.95,358.16,Comet,NEO,Short-period
     C/1998 Y1 (LINEAR),1998 Y1,22.96,0.9239,28.11,98.86,339.84,Comet,FEO,Short-period
     C/2003 U1 (LINEAR),2003 U1,22.9,0.9216,164.47,322.76,278.38,Comet,FEO,Short-period
     C/2018 R5 (Lemmon),2018 R5,22.86,0.8416,103.76,171.14,178.01,Comet,FEO,Short-period
     C/2014 HU195 (Valdes-TOTAS),2014 HU195,21.88,0.766,5.82,115.79,145.07,Comet,FEO,Short-period
     C/2018 W1 (Catalina),2018 W1,21.82,0.9377,83.28,233.59,251.25,Comet,FEO,Short-period
     C/2019 A5 (PANSTARRS),2019 A5,21.65,0.7079,67.54,146.62,356.04,Comet,FEO,Short-period
     C/2017 E2 (Tsuchinshan),2017 E2,21.57,0.8909,79.17,11.56,89.46,Comet,FEO,Short-period
     C/2018 M1 (Catalina),2018 M1,21.26,0.9387,37.26,339.46,14.13,Comet,FEO,Short-period
     C/2017 C1 (NEOWISE),2017 C1,20.8,0.9278,65.75,357.46,110.2,Comet,FEO,Short-period
     C/2012 X2 (PANSTARRS),2012 X2,20.69,0.7705,34.12,271.02,215.63,Comet,FEO,Short-period
     C/2003 F1 (LINEAR),2003 F1,20.66,0.806,70.22,87.49,121.19,Comet,FEO,Short-period
     C/2022 S5 (PANSTARRS),2022 S5,20.45,0.8935,136.53,214.86,232.78,Comet,FEO,Short-period
     C/2017 S2 (PANSTARRS),2017 S2,20.43,0.8231,12.68,62.43,305.97,Comet,FEO,Short-period
     C/2015 A1 (PANSTARRS),2015 A1,20.12,0.9008,80.37,341.09,244.88,Comet,FEO,Short-period
     C/2003 R1 (LINEAR),2003 R1,19.7,0.8933,149.2,356.69,302.69,Comet,FEO,Short-period
     C/2022 Y2 (Lemmon),2022 Y2,19.66,0.8705,165.91,216.35,105.55,Comet,FEO,Short-period
     C/2011 J3 (LINEAR),2011 J3,19.56,0.9258,114.71,21.51,27.84,Comet,FEO,Short-period
     C/2015 X8 (NEOWISE),2015 X8,19.55,0.9391,155.28,191.11,20.4,Comet,NEO,Short-period
     C/1942 EA (Vaisala),1942 EA,19.4,0.9336,38,172.29,335.22,Comet,NEO,Short-period
     C/2023 E1 (ATLAS),2023 E1,19.35,0.9469,38.31,164.58,105.89,Comet,NEO,Short-period
     C/1989 A3 (Bradfield),1989 A3,19.2,0.9781,83.06,28.44,194.77,Comet,NEO,Short-period
     C/2005 W2 (Christensen),2005 W2,18.98,0.8245,11.26,336.62,111.67,Comet,FEO,Short-period
     C/1999 S3 (LINEAR),1999 S3,18.94,0.9,70.56,11.88,44.13,Comet,FEO,Short-period
     C/2015 V4 (PANSTARRS),2015 V4,18.55,0.7056,60.75,179.9,306.91,Comet,FEO,Short-period
     C/2022 P1 (NEOWISE),2022 P1,18.44,0.9135,154.61,205.08,249.93,Comet,FEO,Short-period
     C/2018 EN4 (NEOWISE),2018 EN4,18.43,0.9214,81.56,136.17,35.01,Comet,FEO,Short-period
     C/2008 R3 (LINEAR),2008 R3,18.42,0.8964,43.24,270.55,84.16,Comet,FEO,Short-period
     C/2015 X4 (Elenin),2015 X4,18.13,0.8128,29.5,262.64,176.33,Comet,FEO,Short-period
  165P/LINEAR,165P,18.05,0.6216,15.91,0.64,126.21,Comet,FEO,Short-period
    1P/Halley,1P,17.93,0.9679,162.19,59.11,112.26,Comet,NEO,Short-period
     C/2001 W2 (BATTERS),2001 W2,17.93,0.9414,115.91,113.36,142.09,Comet,NEO,Short-period
  122P/de Vico,122P,17.68,0.9627,85.38,79.62,13,Comet,NEO,Short-period
     C/2002 K4 (NEAT),2002 K4,17.53,0.8423,94.06,308.1,24.43,Comet,FEO,Short-period
     C/1999 XS87 (LINEAR),1999 XS87,17.39,0.8406,14.85,266.73,151.35,Comet,FEO,Short-period
     C/2000 D2 (LINEAR),2000 D2,17.28,0.867,156.99,235.89,117.68,Comet,FEO,Short-period
     C/1999 K4 (LINEAR),1999 K4,17.27,0.9165,120.77,241.48,8.79,Comet,FEO,Short-period
     C/2002 A2 (LINEAR),2002 A2,17.21,0.7265,14.05,81.93,19.26,Comet,FEO,Short-period
     C/2002 A1 (LINEAR),2002 A1,17.18,0.7258,14.06,81.81,18.91,Comet,FEO,Short-period
     C/2015 YG1 (NEOWISE),2015 YG1,17.17,0.8792,57.34,350.51,102.79,Comet,FEO,Short-period
   12P/Pons-Brooks,12P,17.12,0.9543,74.11,255.74,199.01,Comet,NEO,Short-period
     C/1921 H1 (Dubiago),1921 H1,17.1,0.9347,22.35,67.13,97.48,Comet,NEO,Short-period
   23P/Brorsen-Metcalf,23P,17.07,0.972,19.33,311.59,129.61,Comet,NEO,Short-period
     C/2012 BJ98 (Lemmon),2012 BJ98,17.07,0.8736,2.64,124.03,72.97,Comet,FEO,Short-period
